[
    {
       "OBJECT_NAME": "SXM-8",
       "OBJECT_ID": "2021-049A",
       "EPOCH": "2022-03-13T01:03:59.895936",
       "MEAN_MOTION": 1.00268861,
       "ECCENTRICITY": 0.0000834,
       "INCLINATION": 0.0148,
       "RA_OF_ASC_NODE": 160.72,
       "ARG_OF_PERICENTER": 201.8958,
       "MEAN_ANOMALY": 98.8388,
       "EPHEMERIS_TYPE": 0,
       "CLASSIFICATION_TYPE": "U",
       "NORAD_CAT_ID": 48838,
       "ELEMENT_SET_NO": 999,
       "REV_AT_EPOCH": 300,
       "BSTAR": 0,
       "MEAN_MOTION_DOT": -0.00000207,
       "MEAN_MOTION_DDOT": 0
    },
    {
       "OBJECT_NAME": "2021-050A",
       "OBJECT_ID": "2021-050A",
       "EPOCH": "2022-03-13T19:47:36.299616",
       "MEAN_MOTION": 15.25674775,
       "ECCENTRICITY": 0.0011697,
       "INCLINATION": 97.4826,
       "RA_OF_ASC_NODE": 147.7571,
       "ARG_OF_PERICENTER": 36.4805,
       "MEAN_ANOMALY": 57.9265,
       "EPHEMERIS_TYPE": 0,
       "CLASSIFICATION_TYPE": "U",
       "NORAD_CAT_ID": 48840,
       "ELEMENT_SET_NO": 999,
       "REV_AT_EPOCH": 4199,
       "BSTAR": 0,
       "MEAN_MOTION_DOT": -7.4e-7,
       "MEAN_MOTION_DDOT": 0
    },
    {
       "OBJECT_NAME": "2021-050B",
       "OBJECT_ID": "2021-050B",
       "EPOCH": "2022-03-13T18:58:00.886656",
       "MEAN_MOTION": 15.25122085,
       "ECCENTRICITY": 0.0013222,
       "INCLINATION": 97.4801,
       "RA_OF_ASC_NODE": 147.6473,
       "ARG_OF_PERICENTER": 36.7354,
       "MEAN_ANOMALY": 103.0554,
       "EPHEMERIS_TYPE": 0,
       "CLASSIFICATION_TYPE": "U",
       "NORAD_CAT_ID": 48841,
       "ELEMENT_SET_NO": 999,
       "REV_AT_EPOCH": 4197,
       "BSTAR": 0,
       "MEAN_MOTION_DOT": -7.3e-7,
       "MEAN_MOTION_DDOT": 0
    },
    {
       "OBJECT_NAME": "2021-050C",
       "OBJECT_ID": "2021-050C",
       "EPOCH": "2022-03-13T18:30:15.022944",
       "MEAN_MOTION": 15.25560156,
       "ECCENTRICITY": 0.0012297,
       "INCLINATION": 97.4822,
       "RA_OF_ASC_NODE": 147.6866,
       "ARG_OF_PERICENTER": 36.2849,
       "MEAN_ANOMALY": 112.3748,
       "EPHEMERIS_TYPE": 0,
       "CLASSIFICATION_TYPE": "U",
       "NORAD_CAT_ID": 48842,
       "ELEMENT_SET_NO": 999,
       "REV_AT_EPOCH": 4197,
       "BSTAR": 0.00038613,
       "MEAN_MOTION_DOT": 0.00009749,
       "MEAN_MOTION_DDOT": 0
    },
    {
       "OBJECT_NAME": "2021-050D",
       "OBJECT_ID": "2021-050D",
       "EPOCH": "2022-03-13T19:46:45.261408",
       "MEAN_MOTION": 15.24014164,
       "ECCENTRICITY": 0.0013201,
       "INCLINATION": 97.4809,
       "RA_OF_ASC_NODE": 147.4385,
       "ARG_OF_PERICENTER": 34.3386,
       "MEAN_ANOMALY": 75.6104,
       "EPHEMERIS_TYPE": 0,
       "CLASSIFICATION_TYPE": "U",
       "NORAD_CAT_ID": 48843,
       "ELEMENT_SET_NO": 999,
       "REV_AT_EPOCH": 4198,
       "BSTAR": 0,
       "MEAN_MOTION_DOT": -7.3e-7,
       "MEAN_MOTION_DDOT": 0
    },
    {
       "OBJECT_NAME": "ODYSSEY",
       "OBJECT_ID": "2021-051A",
       "EPOCH": "2022-03-13T17:48:02.707200",
       "MEAN_MOTION": 15.53759807,
       "ECCENTRICITY": 0.0031508,
       "INCLINATION": 97.4827,
       "RA_OF_ASC_NODE": 0.7899,
       "ARG_OF_PERICENTER": 19.908,
       "MEAN_ANOMALY": 340.3395,
       "EPHEMERIS_TYPE": 0,
       "CLASSIFICATION_TYPE": "U",
       "NORAD_CAT_ID": 48844,
       "ELEMENT_SET_NO": 999,
       "REV_AT_EPOCH": 4231,
       "BSTAR": 0.00053866,
       "MEAN_MOTION_DOT": 0.00035267,
       "MEAN_MOTION_DDOT": 0
    },
    {
       "OBJECT_NAME": "RAMSAT",
       "OBJECT_ID": "1998-067SL",
       "EPOCH": "2022-03-13T13:32:15.521856",
       "MEAN_MOTION": 15.5838093,
       "ECCENTRICITY": 0.0005659,
       "INCLINATION": 51.6395,
       "RA_OF_ASC_NODE": 82.7761,
       "ARG_OF_PERICENTER": 58.7935,
       "MEAN_ANOMALY": 301.3611,
       "EPHEMERIS_TYPE": 0,
       "CLASSIFICATION_TYPE": "U",
       "NORAD_CAT_ID": 48850,
       "ELEMENT_SET_NO": 999,
       "REV_AT_EPOCH": 4232,
       "BSTAR": 0.0005179,
       "MEAN_MOTION_DOT": 0.00039859,
       "MEAN_MOTION_DDOT": 0
    },
    {
       "OBJECT_NAME": "SOAR",
       "OBJECT_ID": "1998-067SM",
       "EPOCH": "2022-03-13T04:07:13.048320",
       "MEAN_MOTION": 16.16203449,
       "ECCENTRICITY": 0.0005387,
       "INCLINATION": 51.6171,
       "RA_OF_ASC_NODE": 65.6763,
       "ARG_OF_PERICENTER": 124.7388,
       "MEAN_ANOMALY": 235.4136,
       "EPHEMERIS_TYPE": 0,
       "CLASSIFICATION_TYPE": "U",
       "NORAD_CAT_ID": 48851,
       "ELEMENT_SET_NO": 999,
       "REV_AT_EPOCH": 4255,
       "BSTAR": 0.0031842,
       "MEAN_MOTION_DOT": 0.03631518,
       "MEAN_MOTION_DDOT": 0.029469
    },
    {
       "OBJECT_NAME": "NAVSTAR 81 (USA 319)",
       "OBJECT_ID": "2021-054A",
       "EPOCH": "2022-03-13T06:41:10.144896",
       "MEAN_MOTION": 2.00551328,
       "ECCENTRICITY": 0.0002888,
       "INCLINATION": 55.139,
       "RA_OF_ASC_NODE": 34.9213,
       "ARG_OF_PERICENTER": 208.8082,
       "MEAN_ANOMALY": 27.1154,
       "EPHEMERIS_TYPE": 0,
       "CLASSIFICATION_TYPE": "U",
       "NORAD_CAT_ID": 48859,
       "ELEMENT_SET_NO": 999,
       "REV_AT_EPOCH": 552,
       "BSTAR": 0,
       "MEAN_MOTION_DOT": -6.3e-7,
       "MEAN_MOTION_DDOT": 0
    },
    {
       "OBJECT_NAME": "YAOGAN 30 AA",
       "OBJECT_ID": "2021-055A",
       "EPOCH": "2022-03-13T16:55:49.691136",
       "MEAN_MOTION": 14.90242502,
       "ECCENTRICITY": 0.0006191,
       "INCLINATION": 34.9956,
       "RA_OF_ASC_NODE": 176.2341,
       "ARG_OF_PERICENTER": 267.8049,
       "MEAN_ANOMALY": 92.1946,
       "EPHEMERIS_TYPE": 0,
       "CLASSIFICATION_TYPE": "U",
       "NORAD_CAT_ID": 48860,
       "ELEMENT_SET_NO": 999,
       "REV_AT_EPOCH": 4002,
       "BSTAR": 0.00015819,
       "MEAN_MOTION_DOT": 0.00001537,
       "MEAN_MOTION_DDOT": 0
    },
    {
       "OBJECT_NAME": "YAOGAN 30 AB",
       "OBJECT_ID": "2021-055B",
       "EPOCH": "2022-03-13T17:59:17.323584",
       "MEAN_MOTION": 14.90232482,
       "ECCENTRICITY": 0.0006094,
       "INCLINATION": 34.995,
       "RA_OF_ASC_NODE": 175.6413,
       "ARG_OF_PERICENTER": 286.9201,
       "MEAN_ANOMALY": 73.0835,
       "EPHEMERIS_TYPE": 0,
       "CLASSIFICATION_TYPE": "U",
       "NORAD_CAT_ID": 48861,
       "ELEMENT_SET_NO": 999,
       "REV_AT_EPOCH": 4001,
       "BSTAR": 0.00015369,
       "MEAN_MOTION_DOT": 0.00001492,
       "MEAN_MOTION_DDOT": 0
    },
    {
       "OBJECT_NAME": "YAOGAN 30 AC",
       "OBJECT_ID": "2021-055D",
       "EPOCH": "2022-03-13T17:10:46.378848",
       "MEAN_MOTION": 14.90199498,
       "ECCENTRICITY": 0.000593,
       "INCLINATION": 34.998,
       "RA_OF_ASC_NODE": 175.3968,
       "ARG_OF_PERICENTER": 3.6144,
       "MEAN_ANOMALY": 356.4622,
       "EPHEMERIS_TYPE": 0,
       "CLASSIFICATION_TYPE": "U",
       "NORAD_CAT_ID": 48863,
       "ELEMENT_SET_NO": 999,
       "REV_AT_EPOCH": 3973,
       "BSTAR": 0.00014097,
       "MEAN_MOTION_DOT": 0.00001365,
       "MEAN_MOTION_DDOT": 0
    },
    {
       "OBJECT_NAME": "TIANQI-14",
       "OBJECT_ID": "2021-055E",
       "EPOCH": "2022-03-13T14:39:35.126208",
       "MEAN_MOTION": 14.9170666,
       "ECCENTRICITY": 0.0006943,
       "INCLINATION": 35.0058,
       "RA_OF_ASC_NODE": 172.8328,
       "ARG_OF_PERICENTER": 59.2386,
       "MEAN_ANOMALY": 300.905,
       "EPHEMERIS_TYPE": 0,
       "CLASSIFICATION_TYPE": "U",
       "NORAD_CAT_ID": 48864,
       "ELEMENT_SET_NO": 999,
       "REV_AT_EPOCH": 3978,
       "BSTAR": 0.00014657,
       "MEAN_MOTION_DOT": 0.00001476,
       "MEAN_MOTION_DDOT": 0
    }
 ]