SXM-8                   
1 48838U 21049A   22072.04444324 -.00000207  00000+0  00000+0 0  9993
2 48838   0.0148 160.7200 0000834 201.8958  98.8388  1.00268861  3009
2021-050A               
1 48840U 21050A   22072.82472569 -.00000074  00000+0  00000+0 0  9998
2 48840  97.4826 147.7571 0011697  36.4805  57.9265 15.25674775 41990
2021-050B               
1 48841U 21050B   22072.79028804 -.00000073  00000+0  00000+0 0  9993
2 48841  97.4801 147.6473 0013222  36.7354 103.0554 15.25122085 41976
2021-050C               
1 48842U 21050C   22072.77100721  .00009749  00000+0  38613-3 0  9994
2 48842  97.4822 147.6866 0012297  36.2849 112.3748 15.25560156 41974
2021-050D               
1 48843U 21050D   22072.82413497 -.00000073  00000+0  00000+0 0  9995
2 48843  97.4809 147.4385 0013201  34.3386  75.6104 15.24014164 41985
ODYSSEY                 
1 48844U 21051A   22072.74169800  .00035267  00000+0  53866-3 0  9998
2 48844  97.4827   0.7899 0031508  19.9080 340.3395 15.53759807 42311
RAMSAT                  
1 48850U 98067SL  22072.56406854  .00039859  00000+0  51790-3 0  9994
2 48850  51.6395  82.7761 0005659  58.7935 301.3611 15.58380930 42327
SOAR                    
1 48851U 98067SM  22072.17167880  .03631518  29469-1  31842-2 0  9995
2 48851  51.6171  65.6763 0005387 124.7388 235.4136 16.16203449 42554
NAVSTAR 81 (USA 319)    
1 48859U 21054A   22072.27858964 -.00000063  00000+0  00000+0 0  9996
2 48859  55.1390  34.9213 0002888 208.8082  27.1154  2.00551328  5523
YAOGAN 30 AA            
1 48860U 21055A   22072.70543624  .00001537  00000+0  15819-3 0  9995
2 48860  34.9956 176.2341 0006191 267.8049  92.1946 14.90242502 40027
YAOGAN 30 AB            
1 48861U 21055B   22072.74950606  .00001492  00000+0  15369-3 0  9992
2 48861  34.9950 175.6413 0006094 286.9201  73.0835 14.90232482 40019
YAOGAN 30 AC            
1 48863U 21055D   22072.71581457  .00001365  00000+0  14097-3 0  9991
2 48863  34.9980 175.3968 0005930   3.6144 356.4622 14.90199498 39732
TIANQI-14               
1 48864U 21055E   22072.61082322  .00001476  00000+0  14657-3 0  9993
2 48864  35.0058 172.8328 0006943  59.2386 300.9050 14.91706660 39783
